QIANFAN-112             
1 68639U 26075D   26107.99997353 -.01951797  00000+0 -10599+1 0  9996
2 68639  88.9917 327.5103 0014205 200.1819 159.8809 14.16298258  1489
QIANFAN-113             
1 68640U 26075E   26107.92726401  .00000358  00000+0  15546-3 0  9990
2 68640  88.9910 327.5193 0014630 179.9975 180.1219 14.21984355  1478
QIANFAN-114             
1 68641U 26075F   26107.85191509  .00000178  00000+0  74002-4 0  9991
2 68641  88.9912 327.5259 0014885 181.9917 178.1218 14.22111007  1467
QIANFAN-115             
1 68642U 26075G   26107.92262303  .00000071  00000+0  24625-4 0  9999
2 68642  88.9910 327.5185 0015080 179.3220 180.7996 14.23787234  1475
QIANFAN-116             
1 68643U 26075H   26107.92306844  .00000207  00000+0  85398-4 0  9994
2 68643  88.9908 327.5184 0014604 180.4248 179.6934 14.23019746  1471
QIANFAN-117             
1 68644U 26075J   26107.92201170 -.01997569  00000+0 -10454+1 0  9997
2 68644  88.9906 327.5190 0016297 201.4387 158.6121 14.18357510  1478
QIANFAN-118             
1 68645U 26075K   26107.85043470 -.02079892  00000+0 -10560+1 0  9996
2 68645  88.9902 327.5269 0015684 183.2919 176.8171 14.20153623  1467
QIANFAN-119             
1 68646U 26075L   26107.91972244 -.02019207  00000+0 -10273+1 0  9999
2 68646  88.9901 327.5175 0015221 190.1275 169.9610 14.19921713  1475
QIANFAN-120             
1 68647U 26075M   26107.84723705 -.01935034  00000+0 -94426+0 0  9993
2 68647  88.9900 327.5256 0015421 172.7213 187.4205 14.21963187  1463
QIANFAN-121             
1 68648U 26075N   26107.91836457  .00000293  00000+0  11637-3 0  9995
2 68648  88.9910 327.5180 0014166 180.8352 179.2821 14.26053937  1472
QIANFAN-122             
1 68649U 26075P   26107.91818011  .00000320  00000+0  12771-3 0  9993
2 68649  88.9911 327.5180 0014372 180.5131 179.6051 14.26087043  1479
QIANFAN-123             
1 68650U 26075Q   26108.48537290  .00000198  00000+0  80616-4 0  9992
2 68650  88.9907 327.4536 0014813 177.1245 183.0035 14.23608790  1520
QIANFAN-124             
1 68651U 26075R   26108.61980080  .00000223  00000+0  87165-4 0  9992
2 68651  88.9909 327.4366 0015010 178.2365 181.8884 14.26079188  1578
QIANFAN-125             
1 68652U 26075S   26108.68974104  .00000251  00000+0  98809-4 0  9998
2 68652  88.9909 327.4285 0014567 178.7872 181.3359 14.26100554  1588
